[{"OBJECT_NAME":"TRANSPORTER-15 OBJECT CN","OBJECT_ID":"2025-276CN","EPOCH":"2026-03-09T04:35:33.344160","MEAN_MOTION":15.18977527,"ECCENTRICITY":5.071e-5,"INCLINATION":97.4304,"RA_OF_ASC_NODE":143.5648,"ARG_OF_PERICENTER":336.0158,"MEAN_ANOMALY":24.1053,"EPHEMERIS_TYPE":0,"CLASSIFICATION_TYPE":"U","NORAD_CAT_ID":66750,"ELEMENT_SET_NO":999,"REV_AT_EPOCH":1524,"BSTAR":0.00028330364,"MEAN_MOTION_DOT":5.857e-5,"MEAN_MOTION_DDOT":0},{"OBJECT_NAME":"YAOGAN-1 DEB","OBJECT_ID":"2006-015J","EPOCH":"2026-03-09T17:10:54.675840","MEAN_MOTION":15.17781465,"ECCENTRICITY":0.00121617,"INCLINATION":97.7703,"RA_OF_ASC_NODE":138.5844,"ARG_OF_PERICENTER":172.9693,"MEAN_ANOMALY":187.1713,"EPHEMERIS_TYPE":0,"CLASSIFICATION_TYPE":"U","NORAD_CAT_ID":36365,"ELEMENT_SET_NO":999,"REV_AT_EPOCH":87329,"BSTAR":0.00061009979,"MEAN_MOTION_DOT":0.0001229,"MEAN_MOTION_DDOT":0}]
